NORAD_CAT_ID,OBJECT_NAME,OBJECT_TYPE,EPOCH,MEAN_MOTION,ECCENTRICITY,INCLINATION,RA_OF_ASC_NODE,ARG_OF_PERICENTER,MEAN_ANOMALY,BSTAR,MEAN_MOTION_DOT,MEAN_MOTION_DDOT,TLE_LINE0,TLE_LINE1,TLE_LINE2,SEMIMAJOR_AXIS,PERIOD,APOGEE,PERIGEE,DECAYED
55785.0,STARLINK-5818,PAYLOAD,2024-01-19 09:47:14,14.98319298,0.0002846,70.0007,11.9826,263.012,97.0715,-0.00017538,-2.184e-05,0.0,0 STARLINK-5818,1 55785U 23028AW  24019.40780649 -.00002184  00000-0 -17538-3 0  9993,2 55785  70.0007  11.9826 0002846 263.0120  97.0715 14.98319298 50139,6950.226,96.108,574.069,570.113,0.0
55785.0,STARLINK-5818,PAYLOAD,2024-01-19 22:36:18,14.98328095,0.0003576,69.9991,10.6349,272.4296,87.6454,-5.7343e-05,-7.77e-06,0.0,0 STARLINK-5818,1 55785U 23028AW  24019.94187873 -.00000777  00000-0 -57343-4 0  9997,2 55785  69.9991  10.6349 0003576 272.4296  87.6454 14.98328095 50223,6950.199,96.107,574.549,569.578,0.0
55785.0,STARLINK-5818,PAYLOAD,2024-01-20 03:24:42,14.98330081,0.0003407,69.9996,10.1299,272.1579,87.919,-1.4352e-05,-2.64e-06,0.0,0 STARLINK-5818,1 55785U 23028AW  24020.14215654 -.00000264  00000-0 -14352-4 0  9994,2 55785  69.9996  10.1299 0003407 272.1579  87.9190 14.98330081 50241,6950.193,96.107,574.426,569.69,0.0
55785.0,STARLINK-5818,PAYLOAD,2024-01-20 08:13:05,14.98338285,0.0003314,69.9997,9.6248,272.356,87.7219,7.4447e-05,7.96e-06,0.0,0 STARLINK-5818,1 55785U 23028AW  24020.34242848  .00000796  00000-0  74447-4 0  9990,2 55785  69.9997   9.6248 0003314 272.3560  87.7219 14.98338285 50275,6950.167,96.106,574.336,569.729,0.0
55785.0,STARLINK-5818,PAYLOAD,2024-01-21 03:26:43,14.98325783,0.0003085,70.0002,7.6049,270.2144,89.8662,0.00014729,1.665e-05,0.0,0 STARLINK-5818,1 55785U 23028AW  24021.14355338  .00001665  00000-0  14729-3 0  9990,2 55785  70.0002   7.6049 0003085 270.2144  89.8662 14.98325783 50399,6950.206,96.107,574.215,569.927,0.0
55785.0,STARLINK-5818,PAYLOAD,2024-01-21 06:38:58,14.98328538,0.0003012,70.0003,7.2682,268.8128,91.2686,0.00017579,2.005e-05,0.0,0 STARLINK-5818,1 55785U 23028AW  24021.27707095  .00002005  00000-0  17579-3 0  9990,2 55785  70.0003   7.2682 0003012 268.8128  91.2686 14.98328538 50422,6950.197,96.107,574.156,569.969,0.0
55785.0,STARLINK-5818,PAYLOAD,2024-01-21 22:40:19,14.98333621,0.0002626,70.0014,5.5861,257.7427,102.3438,-1.4436e-05,-2.65e-06,0.0,0 STARLINK-5818,1 55785U 23028AW  24021.94467240 -.00000265  00000-0 -14436-4 0  9997,2 55785  70.0014   5.5861 0002626 257.7427 102.3438 14.98333621 50522,6950.182,96.107,573.872,570.222,0.0
55785.0,STARLINK-5818,PAYLOAD,2024-01-22 03:28:43,14.98332453,0.0002653,70.0013,5.0811,258.8751,101.2109,-2.8752e-05,-4.36e-06,0.0,0 STARLINK-5818,1 55785U 23028AW  24022.14495297 -.00000436  00000-0 -28752-4 0  9999,2 55785  70.0013   5.0811 0002653 258.8751 101.2109 14.98332453 50540,6950.185,96.107,573.894,570.206,0.0
55785.0,STARLINK-5818,PAYLOAD,2024-01-22 06:41:00,14.98332051,0.000265,70.0014,4.7445,258.6097,101.4764,-3.144e-05,-4.68e-06,0.0,0 STARLINK-5818,1 55785U 23028AW  24022.27847305 -.00000468  00000-0 -31440-4 0  9997,2 55785  70.0014   4.7445 0002650 258.6097 101.4764 14.98332051 50574,6950.187,96.107,573.893,570.21,0.0
55785.0,STARLINK-5818,PAYLOAD,2024-01-22 08:17:08,14.98332395,0.0002646,70.0014,4.5762,258.5342,101.552,-2.6907e-05,-4.14e-06,0.0,0 STARLINK-5818,1 55785U 23028AW  24022.34523256 -.00000414  00000-0 -26907-4 0  9994,2 55785  70.0014   4.5762 0002646 258.5342 101.5520 14.98332395 50584,6950.185,96.107,573.89,570.211,0.0
55785.0,STARLINK-5818,PAYLOAD,2024-01-23 03:30:44,14.98332173,0.0002789,70.001,2.5557,266.3453,93.7387,-4.3549e-05,-6.13e-06,0.0,0 STARLINK-5818,1 55785U 23028AW  24023.14635131 -.00000613  00000-0 -43549-4 0  9991,2 55785  70.0010   2.5557 0002789 266.3453  93.7387 14.98332173 50697,6950.186,96.107,573.99,570.113,0.0
55785.0,STARLINK-5818,PAYLOAD,2024-01-23 06:43:00,14.98335052,0.0002741,70.001,2.2191,265.5323,94.5523,-5.6917e-06,-1.61e-06,0.0,0 STARLINK-5818,1 55785U 23028AW  24023.27986805 -.00000161  00000-0 -56917-5 0  9994,2 55785  70.0010   2.2191 0002741 265.5323  94.5523 14.98335052 50727,6950.177,96.107,573.947,570.137,0.0
55785.0,STARLINK-5818,PAYLOAD,2024-01-23 22:44:21,14.98325426,0.0002625,70.0014,0.536,264.2439,95.842,-3.4032e-05,-4.99e-06,0.0,0 STARLINK-5818,1 55785U 23028AW  24023.94747424 -.00000499  00000-0 -34032-4 0  9997,2 55785  70.0014   0.5360 0002625 264.2439  95.8420 14.98325426 50820,6950.207,96.107,573.896,570.248,0.0
55785.0,STARLINK-5818,PAYLOAD,2024-01-24 03:32:45,14.98325666,0.0002528,70.0018,0.0323,255.9309,104.1569,-3.0434e-05,-4.56e-06,0.0,0 STARLINK-5818,1 55785U 23028AW  24024.14775416 -.00000456  00000-0 -30434-4 0  9997,2 55785  70.0018   0.0323 0002528 255.9309 104.1569 14.98325666 50849,6950.206,96.107,573.828,570.314,0.0
55785.0,STARLINK-5818,PAYLOAD,2024-01-24 08:21:10,14.98325213,0.0002644,70.0016,359.5267,264.8121,95.2736,-3.4225e-05,-5.01e-06,0.0,0 STARLINK-5818,1 55785U 23028AW  24024.34803559 -.00000501  00000-0 -34225-4 0  9992,2 55785  70.0016 359.5267 0002644 264.8121  95.2736 14.98325213 50884,6950.208,96.107,573.91,570.235,0.0
55785.0,STARLINK-5818,PAYLOAD,2024-01-24 22:46:22,14.98331673,0.0002788,70.0016,358.0135,253.9525,106.1327,3.3604e-05,3.08e-06,0.0,0 STARLINK-5818,1 55785U 23028AW  24024.94886860  .00000308  00000-0  33604-4 0  9997,2 55785  70.0016 358.0135 0002788 253.9525 106.1327 14.98331673 50973,6950.188,96.107,573.99,570.115,0.0
55785.0,STARLINK-5818,PAYLOAD,2024-01-25 03:34:46,14.98329201,0.0002825,70.0013,357.5065,267.6709,92.4126,5.847e-05,6.05e-06,0.0,0 STARLINK-5818,1 55785U 23028AW  24025.14915005  .00000605  00000-0  58470-4 0  9992,2 55785  70.0013 357.5065 0002825 267.6709  92.4126 14.98329201 50994,6950.195,96.107,574.024,570.097,0.0
55785.0,STARLINK-5818,PAYLOAD,2024-01-25 08:23:10,14.98332171,0.0002865,70.0011,357.0022,264.9665,95.1167,7.8878e-05,8.48e-06,0.0,0 STARLINK-5818,1 55785U 23028AW  24025.34942711  .00000848  00000-0  78878-4 0  9991,2 55785  70.0011 357.0022 0002865 264.9665  95.1167 14.98332171 51036,6950.186,96.107,574.042,570.06,0.0
55785.0,STARLINK-5818,PAYLOAD,2024-01-25 22:48:23,14.98327782,0.0002631,70.0018,355.4872,262.3821,97.7039,7.7052e-05,8.26e-06,0.0,0 STARLINK-5818,1 55785U 23028AW  24025.95026928  .00000826  00000-0  77052-4 0  9990,2 55785  70.0018 355.4872 0002631 262.3821  97.7039 14.98327782 51123,6950.2,96.107,573.893,570.236,0.0
55785.0,STARLINK-5818,PAYLOAD,2024-01-26 03:36:47,14.98326341,0.0002992,70.0011,354.9814,266.3589,93.7228,4.3022e-05,4.2e-06,0.0,0 STARLINK-5818,1 55785U 23028AW  24026.15055120  .00000420  00000-0  43022-4 0  9999,2 55785  70.0011 354.9814 0002992 266.3589  93.7228 14.98326341 51149,6950.204,96.107,574.149,569.99,0.0
55785.0,STARLINK-5818,PAYLOAD,2024-01-26 06:49:03,14.98329568,0.0002705,70.0018,354.6466,256.0525,104.0333,7.1e-05,7.54e-06,0.0,0 STARLINK-5818,1 55785U 23028AW  24026.28406826  .00000754  00000-0  71000-4 0  9993,2 55785  70.0018 354.6466 0002705 256.0525 104.0333 14.98329568 51174,6950.194,96.107,573.939,570.179,0.0
55785.0,STARLINK-5818,PAYLOAD,2024-01-27 03:38:48,14.98328854,0.0002624,70.0022,352.4591,246.248,113.8404,-4.3429e-05,-6.11e-06,0.0,0 STARLINK-5818,1 55785U 23028AW  24027.15195094 -.00000611  00000-0 -43429-4 0  9990,2 55785  70.0022 352.4591 0002624 246.2480 113.8404 14.98328854 51292,6950.196,96.107,573.885,570.238,0.0
55785.0,STARLINK-5818,PAYLOAD,2024-01-27 08:27:12,14.98330147,0.0002616,70.0022,351.9544,246.6753,113.4131,-3.0876e-05,-4.61e-06,0.0,0 STARLINK-5818,1 55785U 23028AW  24027.35222980 -.00000461  00000-0 -30876-4 0  9992,2 55785  70.0022 351.9544 0002616 246.6753 113.4131 14.98330147 51338,6950.192,96.107,573.876,570.239,0.0
55785.0,STARLINK-5818,PAYLOAD,2024-01-28 03:40:49,14.98327845,0.000261,70.0025,349.9355,241.9029,118.1866,-2.9603e-05,-4.46e-06,0.0,0 STARLINK-5818,1 55785U 23028AW  24028.15335132 -.00000446  00000-0 -29603-4 0  9994,2 55785  70.0025 349.9355 0002610 241.9029 118.1866 14.98327845 51446,6950.2,96.107,573.879,570.251,0.0
55785.0,STARLINK-5818,PAYLOAD,2024-01-28 06:53:05,14.98329281,0.0002911,70.0008,349.5948,263.0003,97.0825,-5.1627e-05,-7.09e-06,0.0,0 STARLINK-5818,1 55785U 23028AW  24028.28687134 -.00000709  00000-0 -51627-4 0  9993,2 55785  70.0008 349.5948 0002911 263.0003  97.0825 14.98329281 51471,6950.195,96.107,574.083,570.037,0.0
55785.0,STARLINK-5818,PAYLOAD,2024-01-28 22:54:26,14.98328969,0.000304,70.0005,347.9104,268.2546,91.8264,3.4149e-05,3.14e-06,0.0,0 STARLINK-5818,1 55785U 23028AW  24028.95446987  .00000314  00000-0  34149-4 0  9996,2 55785  70.0005 347.9104 0003040 268.2546  91.8264 14.98328969 51579,6950.196,96.107,574.174,569.948,0.0
55785.0,STARLINK-5818,PAYLOAD,2024-01-29 03:42:50,14.98333436,0.0003193,70.0002,347.4064,271.6859,88.3935,6.1972e-05,6.47e-06,0.0,0 STARLINK-5818,1 55785U 23028AW  24029.15474623  .00000647  00000-0  61972-4 0  9990,2 55785  70.0002 347.4064 0003193 271.6859  88.3935 14.98333436 51593,6950.182,96.107,574.266,569.828,0.0
55785.0,STARLINK-5818,PAYLOAD,2024-01-29 06:55:05,14.98337514,0.0003109,70.0003,347.0694,270.5894,89.4909,0.00012003,1.34e-05,0.0,0 STARLINK-5818,1 55785U 23028AW  24029.28826147  .00001340  00000-0  12003-3 0  9997,2 55785  70.0003 347.0694 0003109 270.5894  89.4909 14.98337514 51610,6950.17,96.107,574.195,569.874,0.0
55785.0,STARLINK-5818,PAYLOAD,2024-01-30 03:44:51,14.98328942,0.0002501,70.0015,344.8829,272.0139,88.0734,4.2053e-05,4.09e-06,0.0,0 STARLINK-5818,1 55785U 23028AW  24030.15614912  .00000409  00000-0  42053-4 0  9994,2 55785  70.0015 344.8829 0002501 272.0139  88.0734 14.98328942 51742,6950.196,96.107,573.799,570.323,0.0
55785.0,STARLINK-5818,PAYLOAD,2024-01-30 06:57:07,14.98329127,0.0002501,70.0015,344.5461,271.877,88.2103,6.1532e-05,6.41e-06,0.0,0 STARLINK-5818,1 55785U 23028AW  24030.28966852  .00000641  00000-0  61532-4 0  9992,2 55785  70.0015 344.5461 0002501 271.8770  88.2103 14.98329127 51770,6950.196,96.107,573.799,570.322,0.0
